{"type":"FeatureCollection", "features": [
{"type":"Feature","geometry":{"type":"Polygon","coordinates":[[[78.1780369,26.247003],[78.1778798,26.2492832],[78.1771034,26.2497115],[78.1671286,26.2549932],[78.1674609,26.2518307],[78.1688261,26.2498376],[78.1703503,26.2478819],[78.1719001,26.2458444],[78.1745079,26.2457789],[78.1754628,26.2455432],[78.176348,26.2452657],[78.1765759,26.2451383],[78.1780983,26.2457745],[78.1780599,26.2465431],[78.1780369,26.247003]]]},"properties":{"addr:city":"Gwalior","addr:postcode":"474015","amenity":"college","name":"Indian Institute of Information Technology and Management","website":"https://iiitm.ac.in/","wikidata":"Q6020617","wikipedia":"en:Indian Institute of Information Technology and Management, Gwalior"}},
{"type":"Feature","geometry":{"type":"Polygon","coordinates":[[[78.178129,26.2484596],[78.1782043,26.2471099],[78.1793531,26.2468398],[78.1804505,26.2465929],[78.1806159,26.2459958],[78.1806099,26.2453011],[78.1817051,26.2452577],[78.1820137,26.2456267],[78.1822133,26.2458058],[78.1825038,26.2459849],[78.18277,26.2460826],[78.1831875,26.2461694],[78.1834114,26.2463105],[78.1790851,26.2487255],[78.1787704,26.2483782],[78.178129,26.2484596]]]},"properties":{"addr:city":"Gwalior","addr:postcode":"474015","amenity":"college","website":"https://www.iiitm.ac.in","wikidata":"Q6020617","wikipedia":"en:Atal Bihari Vajpayee Indian Institute of Information Technology and Management"}},
{"type":"Feature","geometry":{"type":"Polygon","coordinates":[[[78.178129,26.2484596],[78.1787704,26.2483782],[78.1790851,26.2487255],[78.1787173,26.2489141],[78.1786199,26.248956],[78.1785447,26.2489778],[78.1784392,26.2489997],[78.178358,26.2490033],[78.1783092,26.2489797],[78.1782118,26.2489141],[78.1781468,26.2488103],[78.178129,26.2484596]]]},"properties":{"amenity":"bank","branch":"Bank Of India ABV-IIITM Branch","brand":"Bank of India","brand:wikidata":"Q2004439","building":"yes","name":"Bank of India"}}
]}