{"type":"FeatureCollection", "features": [
{"type":"Feature","geometry":{"type":"Polygon","coordinates":[[[78.1687448,26.2507774],[78.1687779,26.250606],[78.1688863,26.250622],[78.1688924,26.2506012],[78.1689909,26.2506246],[78.1690226,26.2505173],[78.1688592,26.2504802],[78.1688851,26.2503887],[78.1690074,26.2504165],[78.1690242,26.250357],[78.1691145,26.2503776],[78.1690977,26.2504371],[78.1691823,26.2504563],[78.1692073,26.250368],[78.1693131,26.250392],[78.1692882,26.2504804],[78.1694548,26.2505182],[78.1694615,26.2504957],[78.169517,26.2505089],[78.1694907,26.2505977],[78.169763,26.2506857],[78.1697288,26.2507711],[78.1694408,26.2506746],[78.1694096,26.2507802],[78.169678,26.2508829],[78.1696624,26.2509542],[78.1694003,26.2508735],[78.1693962,26.2508864],[78.1694169,26.2508917],[78.1693905,26.2509752],[78.1693359,26.2509614],[78.169348,26.2509231],[78.1691722,26.2508785],[78.1691776,26.2508614],[78.1691435,26.2508527],[78.1691381,26.2508698],[78.1689705,26.2508273],[78.1689584,26.2508656],[78.1688995,26.2508506],[78.168923,26.2507761],[78.1689406,26.2507806],[78.1689454,26.2507654],[78.1687448,26.2507774]],[[78.169002,26.2507364],[78.1691525,26.2507722],[78.1691509,26.2507776],[78.1691932,26.2507877],[78.1691948,26.2507823],[78.1693648,26.2508227],[78.1694255,26.2506173],[78.1694013,26.2506116],[78.1694049,26.2505993],[78.1692484,26.2505637],[78.1692516,26.2505522],[78.169214,26.2505437],[78.1692094,26.2505598],[78.169064,26.2505267],[78.169002,26.2507364]]]},"properties":{"addr:city":"Gwalior","addr:district":"Gwalior","addr:housenumber":"BH2","addr:postcode":"474015","addr:street":"Nilgiri","building":"allotment_house","building:levels":"3","name":"Nilgiri Hostel"}},
{"type":"Feature","geometry":{"type":"Polygon","coordinates":[[[78.1694243,26.2494477],[78.169438,26.2494003],[78.1694546,26.2494041],[78.169459,26.2493886],[78.1695001,26.2493982],[78.1695115,26.2493586],[78.1697035,26.2494033],[78.1697378,26.2492849],[78.1695458,26.2492402],[78.1695553,26.2492073],[78.1695194,26.2491989],[78.1695248,26.2491804],[78.1695056,26.2491759],[78.1695201,26.2491259],[78.1695717,26.2491379],[78.1695683,26.2491497],[78.1697366,26.2491889],[78.1697622,26.2491007],[78.1698135,26.2491126],[78.169802,26.2491522],[78.169904,26.249176],[78.169917,26.2491311],[78.1700026,26.249151],[78.1699895,26.2491963],[78.1700511,26.2492106],[78.1700612,26.2491758],[78.1701356,26.2491932],[78.1701224,26.2492388],[78.1702068,26.2492584],[78.1702178,26.2492202],[78.1703613,26.2492536],[78.1703273,26.2493711],[78.1702902,26.2493625],[78.1702617,26.2494611],[78.1701231,26.2494289],[78.1701015,26.2495035],[78.1702096,26.2495287],[78.1701985,26.2495672],[78.1702725,26.2495844],[78.1702451,26.2496789],[78.1701654,26.2496603],[78.1701816,26.2496042],[78.1700352,26.2495701],[78.1700074,26.2496663],[78.1699521,26.2496534],[78.1699634,26.2496145],[78.1698406,26.2495859],[78.1698489,26.2495571],[78.1698148,26.2495491],[78.1698066,26.2495776],[78.1696678,26.2495453],[78.1696581,26.2495788],[78.1695937,26.2495638],[78.1696086,26.2495124],[78.1696472,26.2495214],[78.1696569,26.2494877],[78.1694876,26.2494483],[78.1694837,26.2494615],[78.1694243,26.2494477]],[[78.1697243,26.2494656],[78.169979,26.2495251],[78.1699919,26.2494805],[78.169974,26.2494763],[78.1700162,26.2493309],[78.1700278,26.2493336],[78.1700358,26.2493058],[78.1697777,26.2492456],[78.16973,26.2494099],[78.1697398,26.2494122],[78.1697243,26.2494656]]]},"properties":{"building":"yes","guest_house":"student_accommodation","tourism":"hostel"}},
{"type":"Feature","geometry":{"type":"Polygon","coordinates":[[[78.1735958,26.2464989],[78.1736361,26.246423],[78.1736339,26.2464222],[78.1736505,26.2463892],[78.1737031,26.2464105],[78.1737318,26.2463536],[78.1736792,26.2463323],[78.1736949,26.2463012],[78.1736783,26.2462945],[78.1736941,26.2462632],[78.1737374,26.2462807],[78.1737571,26.2462588],[78.1737434,26.2462266],[78.1737821,26.2462134],[78.1737863,26.2462233],[78.1738476,26.2462023],[78.1738434,26.2461925],[78.1738875,26.2461775],[78.1739022,26.2462122],[78.1739283,26.2462148],[78.1739435,26.2461869],[78.1739793,26.2462027],[78.1739738,26.2462128],[78.1740336,26.2462391],[78.1740391,26.246229],[78.1740804,26.2462472],[78.1740356,26.2463291],[78.1740748,26.2463452],[78.1740408,26.2464114],[78.1740185,26.2464022],[78.1740086,26.2464214],[78.1739964,26.2464163],[78.1739836,26.2464413],[78.1739958,26.2464464],[78.1739779,26.2464813],[78.1739417,26.2464664],[78.1739198,26.2464815],[78.173937,26.2465239],[78.1738965,26.2465371],[78.1738891,26.2465189],[78.1738294,26.2465384],[78.1738368,26.2465566],[78.173793,26.2465709],[78.1737758,26.2465285],[78.1737507,26.2465285],[78.1737349,26.2465584],[78.1736964,26.2465419],[78.1737035,26.2465284],[78.1736442,26.246503],[78.173637,26.2465166],[78.1735958,26.2464989]],[[78.173714,26.2464563],[78.1737618,26.2464768],[78.1738837,26.246437],[78.1739594,26.2462891],[78.1739069,26.246266],[78.1737897,26.246306],[78.173714,26.2464563]]]},"properties":{"air_conditioning":"no","building":"yes","guest_house":"student_accommodation","internet_access":"wlan","name":"International Visitor's Hostel","tourism":"hostel"}},
{"type":"Feature","geometry":{"type":"Polygon","coordinates":[[[78.1691408,26.2499962],[78.169159,26.249943],[78.1691679,26.2499455],[78.1691809,26.2499074],[78.1694066,26.2499697],[78.1694477,26.2498498],[78.1692149,26.2497855],[78.1692482,26.2496885],[78.169278,26.2496968],[78.1692746,26.2497068],[78.1694354,26.2497511],[78.1694643,26.2496671],[78.1695378,26.2496874],[78.1695242,26.2497272],[78.1697679,26.2497945],[78.1697791,26.2497618],[78.1698854,26.2497911],[78.1698998,26.249749],[78.1700667,26.249795],[78.1700169,26.2499402],[78.1700351,26.2499453],[78.1699763,26.2501169],[78.169764,26.2500583],[78.169748,26.2501048],[78.1699198,26.2501522],[78.1699151,26.2501659],[78.1699336,26.250171],[78.1699384,26.2501568],[78.1699937,26.250172],[78.1699746,26.2502277],[78.1699357,26.250217],[78.1699328,26.2502254],[78.1699719,26.2502362],[78.1699589,26.250274],[78.1699166,26.2502623],[78.1699112,26.2502781],[78.1698149,26.2502516],[78.1698256,26.2502205],[78.1697239,26.2501924],[78.1697134,26.250223],[78.1696407,26.2502029],[78.169651,26.250173],[78.1695371,26.2501416],[78.1695406,26.2501314],[78.1695181,26.2501251],[78.1695144,26.2501359],[78.1694053,26.2501058],[78.1693936,26.2501398],[78.169329,26.2501219],[78.1693565,26.2500419],[78.169192,26.2499966],[78.1691877,26.2500091],[78.1691408,26.2499962]],[[78.1694648,26.2500236],[78.1696784,26.250082],[78.1697474,26.2498788],[78.1695022,26.2498118],[78.1694965,26.2498286],[78.1695281,26.2498372],[78.1694648,26.2500236]]]},"properties":{"building":"yes","tourism":"hostel"}},
{"type":"Feature","geometry":{"type":"Polygon","coordinates":[[[78.1684647,26.252312],[78.1684493,26.2523127],[78.1684528,26.2523787],[78.1683785,26.2523819],[78.1683609,26.2520498],[78.1684352,26.2520466],[78.1684394,26.252125],[78.1684592,26.2521241],[78.168463,26.2521963],[78.1684432,26.2521971],[78.168444,26.2522125],[78.1684594,26.2522118],[78.1684647,26.252312]]]},"properties":{"building":"yes"}},
{"type":"Feature","geometry":{"type":"Polygon","coordinates":[[[78.172071,26.2509098],[78.1720821,26.2508742],[78.1721001,26.2508788],[78.1721449,26.2507364],[78.1722347,26.2507591],[78.1722483,26.2507159],[78.1725048,26.2507808],[78.1724911,26.2508241],[78.1724948,26.2508251],[78.1725499,26.2506375],[78.1725505,26.2506354],[78.172298,26.2505796],[78.1722939,26.2505945],[78.1722551,26.250586],[78.1722531,26.2505933],[78.1721922,26.2505798],[78.1722078,26.2505229],[78.1721926,26.2505196],[78.1722022,26.2504848],[78.1722153,26.2504877],[78.1722583,26.2503308],[78.1723418,26.2503493],[78.1723531,26.2503081],[78.1726137,26.2503656],[78.1726024,26.2504068],[78.1726167,26.2504099],[78.1726647,26.2502465],[78.1726369,26.2502396],[78.1726437,26.2502174],[78.1724025,26.2501577],[78.1723956,26.2501804],[78.1723579,26.2501711],[78.1723544,26.2501827],[78.1722886,26.2501665],[78.1723656,26.2499163],[78.1724489,26.249937],[78.1724626,26.2498925],[78.172711,26.249954],[78.1726973,26.2499984],[78.1727347,26.2500077],[78.1727211,26.2500521],[78.1728125,26.2500747],[78.1728687,26.2500432],[78.1727094,26.2497906],[78.1728222,26.2497333],[78.1728022,26.2497015],[78.1729884,26.2496071],[78.1730113,26.2496132],[78.1730593,26.2496893],[78.1731664,26.2496343],[78.1732842,26.2498187],[78.1732064,26.2498587],[78.1732144,26.2498711],[78.1732659,26.2498446],[78.1733244,26.2499362],[78.1732468,26.2499761],[78.173219,26.2499326],[78.173189,26.249948],[78.1732288,26.2500103],[78.1730519,26.2501009],[78.1730625,26.250124],[78.1731775,26.2501494],[78.17319,26.2501036],[78.1732211,26.2501105],[78.1732324,26.2500696],[78.1734873,26.2501259],[78.1734734,26.2501764],[78.1735594,26.2501954],[78.1735151,26.250357],[78.1735594,26.2503668],[78.1735489,26.2504053],[78.1735045,26.2503955],[78.1734908,26.2504454],[78.1734434,26.2504349],[78.1734469,26.250422],[78.1734034,26.2504124],[78.173409,26.2503919],[78.1731734,26.2503398],[78.1731673,26.250362],[78.1731126,26.2503499],[78.1730695,26.250511],[78.1731096,26.2505191],[78.1731181,26.2504853],[78.1733816,26.2505386],[78.1733721,26.2505764],[78.1734598,26.2505942],[78.1734139,26.2507767],[78.1734503,26.2507841],[78.1734425,26.2508152],[78.1734061,26.2508078],[78.1733954,26.2508504],[78.1732916,26.2508294],[78.173299,26.2508004],[78.1730077,26.2507415],[78.1729628,26.250909],[78.1730038,26.2509184],[78.1730138,26.2508831],[78.1732598,26.2509392],[78.1732497,26.2509745],[78.1733116,26.2509886],[78.1732702,26.2511346],[78.1733419,26.251151],[78.1733301,26.2511922],[78.1732725,26.2511791],[78.1732583,26.2512292],[78.1731961,26.251215],[78.1732048,26.2511844],[78.1729089,26.2511168],[78.1729161,26.2510915],[78.1728101,26.2510673],[78.1727547,26.2510988],[78.1729461,26.2513699],[78.1728173,26.2514431],[78.1728362,26.2514698],[78.1726652,26.251567],[78.1726379,26.2515284],[78.1725986,26.2515507],[78.1725693,26.2515093],[78.1725297,26.2514979],[78.1724927,26.2515189],[78.1724691,26.2514854],[78.1724297,26.2515077],[78.1723282,26.2513639],[78.1723709,26.2513397],[78.1722902,26.2512253],[78.1725241,26.2510924],[78.1724799,26.2510298],[78.1721491,26.250946],[78.1721382,26.2509805],[78.1720743,26.2509643],[78.17209,26.2509146],[78.172071,26.2509098]],[[78.1722659,26.2508844],[78.1723995,26.2509182],[78.1724193,26.2508553],[78.1722857,26.2508215],[78.1722659,26.2508844]],[[78.1723836,26.2504897],[78.1725001,26.2505154],[78.1725154,26.2504596],[78.1723989,26.2504339],[78.1723836,26.2504897]],[[78.172486,26.2500675],[78.1726076,26.2500976],[78.1726243,26.2500433],[78.1725027,26.2500132],[78.172486,26.2500675]],[[78.172491,26.2509742],[78.1725344,26.2509852],[78.1725327,26.2509904],[78.1725333,26.2509901],[78.1725822,26.2510594],[78.1726084,26.2510446],[78.1726412,26.2510911],[78.1726632,26.2510973],[78.1727751,26.2510339],[78.1727754,26.251033],[78.1728243,26.2510442],[78.1728315,26.2510187],[78.1728858,26.2510311],[78.1731077,26.250203],[78.1730649,26.2501935],[78.1730739,26.2501608],[78.1730419,26.2501538],[78.1729963,26.2500552],[78.1729294,26.2500368],[78.1728188,26.2500987],[78.1727898,26.2500915],[78.172778,26.2501298],[78.1727416,26.2501208],[78.172491,26.2509742]],[[78.1725073,26.2513033],[78.1725589,26.2513764],[78.1726203,26.2513977],[78.1727238,26.2513389],[78.1726518,26.251237],[78.1726292,26.2512341],[78.1725073,26.2513033]],[[78.172907,26.2498232],[78.172984,26.2499454],[78.1729927,26.249941],[78.1730136,26.2499742],[78.1731518,26.2499032],[78.1730705,26.249776],[78.1730224,26.2497647],[78.172907,26.2498232]],[[78.173148,26.2506578],[78.1732675,26.250682],[78.173281,26.2506285],[78.1731615,26.2506043],[78.173148,26.2506578]],[[78.173249,26.2502446],[78.1733789,26.2502734],[78.1733939,26.250219],[78.173264,26.2501902],[78.173249,26.2502446]]]},"properties":{"building":"yes"}},
{"type":"Feature","geometry":{"type":"Polygon","coordinates":[[[78.172212,26.2496715],[78.1721328,26.2494788],[78.1721888,26.249463],[78.1722539,26.2494531],[78.172321,26.2494531],[78.1723555,26.249457],[78.1723897,26.2494656],[78.172418,26.2494726],[78.172445,26.2494843],[78.1724986,26.2495114],[78.1725481,26.2495456],[78.1725959,26.2495865],[78.1724269,26.2497121],[78.1723819,26.2496795],[78.1723315,26.2496647],[78.172271,26.2496603],[78.172212,26.2496715]]]},"properties":{"building":"yes"}},
{"type":"Feature","geometry":{"type":"Polygon","coordinates":[[[78.1727179,26.2467858],[78.1727118,26.2467818],[78.1726924,26.2467535],[78.1726867,26.2467207],[78.1726953,26.2466885],[78.1727171,26.2466616],[78.1727486,26.2466443],[78.1727844,26.2466344],[78.1728103,26.2466272],[78.1727978,26.2465944],[78.172857,26.2465763],[78.1728308,26.2465073],[78.173312,26.2463605],[78.1734086,26.2466151],[78.1733529,26.2466321],[78.173361,26.2466551],[78.17343,26.2466357],[78.1734675,26.2467428],[78.1733196,26.2467845],[78.173328,26.2468083],[78.1729677,26.2469099],[78.1729479,26.2468533],[78.1729099,26.2468634],[78.1728927,26.2468197],[78.1728695,26.2468295],[78.1728898,26.2468754],[78.1729057,26.2469112],[78.1729318,26.2469042],[78.1730337,26.2471637],[78.172751,26.2472496],[78.1727327,26.2471995],[78.1726753,26.2472149],[78.1726438,26.2471077],[78.1726952,26.2470805],[78.1726418,26.246955],[78.1725905,26.2468331],[78.1727179,26.2467858]]]},"properties":{"building":"yes","leisure":"sports_centre","sport":"swimming;badminton;squash;table_tennis;yoga;chess"}},
{"type":"Feature","geometry":{"type":"Polygon","coordinates":[[[78.1737975,26.2497843],[78.1737619,26.2498021],[78.1737491,26.2497815],[78.1736488,26.2498314],[78.1735575,26.249684],[78.1738303,26.2495481],[78.1738366,26.2495583],[78.1738773,26.2494378],[78.1739724,26.2494636],[78.1740241,26.2493102],[78.1739282,26.2492842],[78.1740446,26.2489388],[78.1740898,26.2489511],[78.1740986,26.248925],[78.1742054,26.248954],[78.1741966,26.24898],[78.1743113,26.2490111],[78.1742776,26.2491112],[78.1741911,26.2490878],[78.1741621,26.2491738],[78.1742486,26.2491972],[78.1741938,26.2493598],[78.1741522,26.2493485],[78.1740926,26.2495252],[78.1741475,26.2495401],[78.1741068,26.2496608],[78.1740203,26.2496374],[78.1739912,26.2497236],[78.1740777,26.249747],[78.1740427,26.2498508],[78.1738916,26.2498098],[78.1738971,26.2497934],[78.1738443,26.2497791],[78.1738388,26.2497955],[78.1737975,26.2497843]]]},"properties":{"building":"yes"}},
{"type":"Feature","geometry":{"type":"Polygon","coordinates":[[[78.1683572,26.2518708],[78.1683272,26.2513039],[78.1684066,26.2513005],[78.1684365,26.2518675],[78.1683572,26.2518708]]]},"properties":{"building":"yes"}},
{"type":"Feature","geometry":{"type":"Polygon","coordinates":[[[78.1768641,26.249347],[78.1768399,26.2493101],[78.1768162,26.2493226],[78.1767655,26.2492456],[78.1768305,26.2492111],[78.1768368,26.2492208],[78.1769052,26.2491846],[78.1769171,26.2492027],[78.177,26.2491588],[78.1769844,26.2491352],[78.177076,26.2490868],[78.1770356,26.2490255],[78.1770352,26.2490376],[78.1770244,26.249059],[78.1770053,26.2490751],[78.1769808,26.2490834],[78.1769546,26.2490827],[78.1769307,26.249073],[78.1769127,26.2490559],[78.1769035,26.2490339],[78.1769043,26.2490104],[78.1769151,26.2489889],[78.1769342,26.2489728],[78.1769587,26.2489645],[78.1769849,26.2489652],[78.177,26.2489714],[78.1769624,26.2489141],[78.1767159,26.2490446],[78.1767248,26.2490581],[78.1766648,26.2490898],[78.1765785,26.2489587],[78.1766502,26.2489208],[78.1766671,26.2489466],[78.1769267,26.2488091],[78.1769199,26.2487987],[78.176978,26.2487679],[78.1770172,26.2488274],[78.1770077,26.2488325],[78.1770614,26.2489141],[78.177096,26.2488957],[78.1771263,26.2489193],[78.1771385,26.2489603],[78.1771039,26.2489787],[78.1772217,26.2491577],[78.1771849,26.2491771],[78.1772007,26.2492011],[78.1771643,26.2492204],[78.1771485,26.2491964],[78.1768641,26.249347]]]},"properties":{"building":"yes"}},
{"type":"Feature","geometry":{"type":"Polygon","coordinates":[[[78.1717293,26.2495043],[78.171804,26.2492462],[78.1718967,26.2492678],[78.171879,26.249329],[78.1720108,26.2493597],[78.1719538,26.2495565],[78.1717293,26.2495043]]]},"properties":{"building":"yes"}},
{"type":"Feature","geometry":{"type":"Polygon","coordinates":[[[78.1723637,26.2461708],[78.172389,26.2461443],[78.1724398,26.2461832],[78.1723718,26.2462547],[78.1723903,26.2462491],[78.1724109,26.2462502],[78.1724295,26.2462584],[78.1724431,26.2462723],[78.1724498,26.2462899],[78.1724485,26.2463084],[78.1724394,26.246325],[78.1724239,26.2463373],[78.1724043,26.2463433],[78.1723837,26.2463421],[78.1723651,26.2463339],[78.1723515,26.24632],[78.1723448,26.2463025],[78.1723461,26.246284],[78.172349,26.2462787],[78.1723241,26.2463048],[78.1722798,26.2462709],[78.172215,26.2463681],[78.1722288,26.2463788],[78.1722528,26.2464512],[78.1721548,26.2464774],[78.1721635,26.2465038],[78.1720703,26.2465288],[78.1720615,26.2465023],[78.171959,26.2465297],[78.171935,26.2464573],[78.1719431,26.2464359],[78.1718899,26.2464044],[78.1718325,26.2463881],[78.1718139,26.2464433],[78.1718012,26.2464399],[78.1718027,26.2464416],[78.1718086,26.2464596],[78.1718063,26.2464782],[78.1717962,26.2464946],[78.17178,26.2465063],[78.17176,26.2465115],[78.1717392,26.2465094],[78.171721,26.2465004],[78.1717079,26.2464858],[78.1717021,26.2464679],[78.1717044,26.2464493],[78.1717144,26.2464329],[78.1717311,26.2464211],[78.171651,26.2463992],[78.1716703,26.2463418],[78.1717045,26.2463511],[78.1717223,26.2463103],[78.1717509,26.2462655],[78.1717845,26.246223],[78.1718221,26.246188],[78.1718048,26.2461642],[78.1718662,26.2461283],[78.1718823,26.2461506],[78.1718868,26.2461481],[78.1719375,26.2461253],[78.1719956,26.2461107],[78.172066,26.2460989],[78.1720827,26.2460986],[78.1720838,26.2460681],[78.1721613,26.2460702],[78.1721603,26.2461001],[78.1722198,26.2461114],[78.1722943,26.2461349],[78.1723637,26.2461708]]]},"properties":{"amenity":"theatre","theatre:type":"amphi"}},
{"type":"Feature","geometry":{"type":"Polygon","coordinates":[[[78.1722756,26.2470961],[78.1721189,26.246742],[78.1723078,26.2466842],[78.1724537,26.2470384],[78.1722756,26.2470961]]]},"properties":{"leisure":"pitch","sport":"tennis","surface":"synthetic"}},
{"type":"Feature","geometry":{"type":"Polygon","coordinates":[[[78.1710053,26.2492608],[78.1708164,26.2492087],[78.1706275,26.2491122],[78.1704908,26.2489298],[78.1704182,26.2487629],[78.1704007,26.2486352],[78.1704066,26.2485413],[78.1704443,26.2484449],[78.1705083,26.2483223],[78.1705577,26.2482493],[78.1706246,26.2481451],[78.1707292,26.2480486],[78.1708716,26.2479756],[78.1710155,26.2479169],[78.1711492,26.2479092],[78.1713369,26.2479092],[78.1714649,26.2479398],[78.1715759,26.2479934],[78.1716868,26.2480725],[78.1717693,26.2481618],[78.1718433,26.2482639],[78.1718717,26.2483481],[78.1718916,26.2484476],[78.1718973,26.2485522],[78.1718518,26.248718],[78.1717978,26.2488583],[78.1717494,26.2489757],[78.1716754,26.2491313],[78.1715844,26.2491823],[78.1714678,26.2492257],[78.1713455,26.249264],[78.1712089,26.2492844],[78.1711008,26.2492844],[78.1710053,26.2492608]]]},"properties":{"leisure":"pitch","sport":"cricket"}},
{"type":"Feature","geometry":{"type":"Polygon","coordinates":[[[78.1726822,26.249304],[78.1726593,26.2492983],[78.1726415,26.2493438],[78.1722672,26.2492459],[78.1723014,26.2491491],[78.1722075,26.2491264],[78.1723065,26.2488805],[78.1723788,26.2488987],[78.172403,26.2488111],[78.1727761,26.2488965],[78.1727596,26.2489591],[78.1728484,26.2489841],[78.1728192,26.2490729],[78.1728408,26.2490774],[78.1728497,26.2490444],[78.1729284,26.2490649],[78.1728949,26.2491807],[78.1728738,26.2492539],[78.1727976,26.2492311],[78.1727545,26.2492778],[78.1727139,26.24928],[78.172705,26.2493096],[78.1726822,26.249304]]]},"properties":{"amenity":"library","building":"yes"}},
{"type":"Feature","geometry":{"type":"Polygon","coordinates":[[[78.1732464,26.2462702],[78.1731196,26.2459842],[78.1733082,26.2459139],[78.1734434,26.2462073],[78.1732464,26.2462702]]]},"properties":{"leisure":"pitch","lit":"no","sport":"basketball","surface":"cement"}},
{"type":"Feature","geometry":{"type":"Polygon","coordinates":[[[78.17612,26.2473585],[78.1761072,26.2472971],[78.1759874,26.2473028],[78.1759874,26.2472107],[78.1759595,26.2472088],[78.1759403,26.2470534],[78.1758547,26.2470534],[78.1758504,26.2469402],[78.1759078,26.2469402],[78.1759054,26.2469126],[78.1758746,26.246914],[78.1758633,26.2467955],[78.1758235,26.2467977],[78.1758154,26.2467141],[78.1762751,26.2466639],[78.1762905,26.2467519],[78.1762451,26.2467577],[78.1762645,26.2468777],[78.1762305,26.2468835],[78.1762345,26.246914],[78.1763407,26.2469111],[78.1763383,26.2469002],[78.1764113,26.2468944],[78.1764104,26.246914],[78.1764267,26.2469118],[78.1764283,26.2469366],[78.1764518,26.2469366],[78.1764567,26.2470245],[78.176468,26.2470194],[78.1764948,26.2472841],[78.176485,26.2473066],[78.1764445,26.2473095],[78.176374,26.2473168],[78.1763715,26.2473372],[78.17612,26.2473585]]]},"properties":{"building":"yes","guest_house":"student_accommodation","tourism":"hostel"}},
{"type":"Feature","geometry":{"type":"Polygon","coordinates":[[[78.1732357,26.2486547],[78.1733572,26.2485908],[78.1733599,26.2485814],[78.1734324,26.2485591],[78.1733729,26.2484741],[78.1734337,26.2484407],[78.1734167,26.2484255],[78.1734742,26.2482197],[78.1734899,26.2482045],[78.1735069,26.2481921],[78.173537,26.2481804],[78.1735612,26.2481699],[78.1735997,26.248164],[78.1735984,26.2481576],[78.1736108,26.2481546],[78.1735847,26.2481318],[78.173654,26.2480855],[78.1736703,26.248086],[78.1737076,26.2480473],[78.1737318,26.2480473],[78.1737677,26.2480749],[78.1738161,26.2481716],[78.173803,26.2481833],[78.1738226,26.2481921],[78.1738612,26.2482543],[78.1738592,26.248266],[78.1738978,26.248324],[78.1738913,26.2483469],[78.1738664,26.2483586],[78.173869,26.2483786],[78.173869,26.2483997],[78.1738658,26.2484249],[78.1738579,26.2484513],[78.1738442,26.2484724],[78.1738305,26.2484952],[78.1738154,26.2485105],[78.1738004,26.2485216],[78.1737736,26.2485363],[78.1737475,26.2485439],[78.1737553,26.2485691],[78.1737716,26.248562],[78.1737899,26.2485667],[78.1738605,26.2485357],[78.1739011,26.2485996],[78.1737991,26.248647],[78.173818,26.2486787],[78.1737651,26.2487057],[78.1738167,26.2487918],[78.1736854,26.2488604],[78.1736494,26.2488094],[78.1734115,26.2487455],[78.1733468,26.248783],[78.1733128,26.2487789],[78.1732357,26.2486547]]]},"properties":{"amenity":"conference_centre","building":"yes"}},
{"type":"Feature","geometry":{"type":"Polygon","coordinates":[[[78.1783892,26.2479897],[78.1783915,26.2479381],[78.1784259,26.2479407],[78.1784178,26.2479078],[78.1784236,26.2476971],[78.1784376,26.247696],[78.1784393,26.24765],[78.1784481,26.24765],[78.1784511,26.2475734],[78.178537,26.2475711],[78.1785456,26.2475561],[78.1787111,26.2475647],[78.178709,26.2475769],[78.1788416,26.2475833],[78.1788416,26.2475903],[78.1788734,26.2475894],[78.1788755,26.2475986],[78.1789626,26.2476009],[78.1789786,26.2476034],[78.1789893,26.2476092],[78.1790004,26.2476172],[78.1790086,26.2476252],[78.1790178,26.2476345],[78.1790264,26.2476466],[78.1790332,26.2476581],[78.1790375,26.2476697],[78.1790375,26.2476799],[78.1790367,26.2476908],[78.1790342,26.2477045],[78.179031,26.2477164],[78.179026,26.2477272],[78.1790218,26.2477372],[78.1790092,26.2477544],[78.1789397,26.2477424],[78.178836,26.2479993],[78.1788532,26.2480044],[78.1788427,26.2480317],[78.1787171,26.2480096],[78.1787066,26.2480599],[78.1784471,26.2480464],[78.1783892,26.2479897]]]},"properties":{"building":"yes","tourism":"hostel"}},
{"type":"Feature","geometry":{"type":"Polygon","coordinates":[[[78.17846,26.2474534],[78.1784554,26.2473831],[78.1784652,26.2473748],[78.1784902,26.2473686],[78.1784699,26.2472983],[78.1785436,26.2472759],[78.1785436,26.2472686],[78.1786312,26.2472457],[78.178637,26.2472499],[78.1786649,26.2472463],[78.1786672,26.2472411],[78.1786683,26.2472234],[78.178709,26.2471661],[78.1787931,26.2472067],[78.1788244,26.2472109],[78.1788082,26.2471448],[78.1789968,26.2471031],[78.1790525,26.2472801],[78.1789875,26.247291],[78.1790125,26.2473727],[78.1790659,26.2473566],[78.1790821,26.2474144],[78.1790589,26.2474394],[78.1790171,26.2474342],[78.1788598,26.2474722],[78.1788413,26.2474107],[78.1788059,26.2474201],[78.1788111,26.2474331],[78.1787664,26.247444],[78.1787519,26.2473988],[78.178713,26.2474076],[78.1786985,26.2474482],[78.1786051,26.2474659],[78.1786022,26.2474534],[78.1785151,26.2474706],[78.1785064,26.2474435],[78.17846,26.2474534]]]},"properties":{"building":"yes","tourism":"guest_house"}},
{"type":"Feature","geometry":{"type":"Polygon","coordinates":[[[78.1802266,26.2475605],[78.1802462,26.2474697],[78.1804119,26.2475004],[78.1804184,26.2475211],[78.1804359,26.2475053],[78.1804461,26.2475124],[78.1804646,26.2475124],[78.1804693,26.2475402],[78.1805109,26.2475489],[78.1805447,26.2475228],[78.1805553,26.2475232],[78.1805683,26.2475149],[78.1805683,26.2475053],[78.1805697,26.2474962],[78.1805743,26.2474887],[78.1805257,26.247475],[78.1805396,26.2474327],[78.1805239,26.2474273],[78.1805419,26.2473754],[78.1805521,26.2473754],[78.180572,26.247297],[78.180596,26.247302],[78.1805933,26.2473115],[78.1806423,26.2473261],[78.1806516,26.2473086],[78.1806817,26.2473136],[78.1806766,26.2473265],[78.1806858,26.2473269],[78.180683,26.2473393],[78.1806733,26.2473439],[78.1806516,26.2474049],[78.1806682,26.2474099],[78.1806496,26.2474611],[78.1806747,26.2474586],[78.180686,26.2474812],[78.1807018,26.2474704],[78.180822,26.2475026],[78.1808115,26.2475255],[78.1808154,26.2475321],[78.1808343,26.2475408],[78.1808073,26.2476232],[78.1807134,26.2476063],[78.1807111,26.2476132],[78.1806407,26.2475973],[78.1806442,26.2475889],[78.1805878,26.2475768],[78.1806048,26.2475522],[78.1806048,26.2475477],[78.1805785,26.247546],[78.1805314,26.2475775],[78.1805256,26.2475966],[78.180548,26.2476007],[78.180531,26.2476558],[78.1805387,26.2476585],[78.1804755,26.2478522],[78.1804439,26.2478758],[78.1803701,26.2478593],[78.1804004,26.2477872],[78.1803807,26.2477802],[78.1803807,26.2477542],[78.1804215,26.2476337],[78.1803833,26.2475947],[78.1802266,26.2475605]]]},"properties":{"building":"yes"}}
]}